start=new Date('2022-08-08T00:00:00.000Z').valueOf();
sats=[{"TLE_LINE2":"2 52264  53.2147 228.9121 0002240  49.7770 165.6365 15.08808047 17843","REF_FRAME":"TEME","MEAN_MOTION":"15.08808047","TIME_SYSTEM":"UTC","PERIOD":"95.440","CENTER_NAME":"EARTH","LAUNCH_DATE":"2022-04-21","OBJECT_TYPE":"PAYLOAD","APOAPSIS":"541.393","NORAD_CAT_ID":"52264","BSTAR":"0.00242520000000","SITE":"AFETR","RA_OF_ASC_NODE":"228.9121","EPHEMERIS_TYPE":"0","ELEMENT_SET_NO":"999","TLE_LINE1":"1 52264U 22041D   22219.91667824  .00038487  00000-0  24252-2 0  9994","FILE":"3531443","OBJECT_NAME":"STARLINK-3795","COUNTRY_CODE":"US","INCLINATION":"53.2147","ARG_OF_PERICENTER":"49.7770","REV_AT_EPOCH":"1784","DECAY_DATE":null,"MEAN_MOTION_DOT":"0.00038487","SEMIMAJOR_AXIS":"6917.978","RCS_SIZE":"LARGE","CLASSIFICATION_TYPE":"U","OBJECT_ID":"2022-041D","MEAN_MOTION_DDOT":"0.0000000000000","PERIAPSIS":"538.293","MEAN_ELEMENT_THEORY":"SGP4","GP_ID":"209769665","MEAN_ANOMALY":"165.6365","ECCENTRICITY":"0.00022400","EPOCH":"2022-08-07T22:00:00.999936"},{"CLASSIFICATION_TYPE":"U","MEAN_MOTION_DDOT":"0.0000000000000","OBJECT_ID":"2022-041E","MEAN_MOTION_DOT":"0.00039593","SEMIMAJOR_AXIS":"6917.966","RCS_SIZE":"LARGE","GP_ID":"209771344","MEAN_ANOMALY":"182.8337","ECCENTRICITY":"0.00022630","EPOCH":"2022-08-07T22:00:00.999936","MEAN_ELEMENT_THEORY":"SGP4","PERIAPSIS":"538.265","FILE":"3531511","TLE_LINE1":"1 52265U 22041E   22219.91667824  .00039593  00000-0  24937-2 0  9994","DECAY_DATE":null,"REV_AT_EPOCH":"1785","ARG_OF_PERICENTER":"52.5732","OBJECT_NAME":"STARLINK-3740","COUNTRY_CODE":"US","INCLINATION":"53.2146","OBJECT_TYPE":"PAYLOAD","APOAPSIS":"541.396","NORAD_CAT_ID":"52265","PERIOD":"95.439","CENTER_NAME":"EARTH","LAUNCH_DATE":"2022-04-21","ELEMENT_SET_NO":"999","BSTAR":"0.00249370000000","SITE":"AFETR","EPHEMERIS_TYPE":"0","RA_OF_ASC_NODE":"228.9105","TLE_LINE2":"2 52265  53.2146 228.9105 0002263  52.5732 182.8337 15.08812137 17856","REF_FRAME":"TEME","TIME_SYSTEM":"UTC","MEAN_MOTION":"15.08812137"},{"LAUNCH_DATE":"2022-04-21","CENTER_NAME":"EARTH","PERIOD":"95.440","NORAD_CAT_ID":"52266","APOAPSIS":"541.267","OBJECT_TYPE":"PAYLOAD","EPHEMERIS_TYPE":"0","RA_OF_ASC_NODE":"228.9108","SITE":"AFETR","BSTAR":"0.00257400000000","ELEMENT_SET_NO":"999","REF_FRAME":"TEME","TLE_LINE2":"2 52266  53.2147 228.9108 0002050  50.1829 205.2514 15.08806071  1306","MEAN_MOTION":"15.08806071","TIME_SYSTEM":"UTC","RCS_SIZE":"LARGE","MEAN_MOTION_DOT":"0.00040878","SEMIMAJOR_AXIS":"6917.984","OBJECT_ID":"2022-041F","MEAN_MOTION_DDOT":"0.0000000000000","CLASSIFICATION_TYPE":"U","PERIAPSIS":"538.431","MEAN_ELEMENT_THEORY":"SGP4","EPOCH":"2022-08-07T22:00:00.999936","GP_ID":"209796212","MEAN_ANOMALY":"205.2514","ECCENTRICITY":"0.00020500","TLE_LINE1":"1 52266U 22041F   22219.91667824  .00040878  00000-0  25740-2 0  9996","FILE":"3531552","COUNTRY_CODE":"US","INCLINATION":"53.2147","OBJECT_NAME":"STARLINK-3739","ARG_OF_PERICENTER":"50.1829","REV_AT_EPOCH":"130","DECAY_DATE":null},{"FILE":"3531444","TLE_LINE1":"1 52267U 22041G   22219.91667824  .00042947  00000-0  27013-2 0  9991","ARG_OF_PERICENTER":"48.1901","COUNTRY_CODE":"US","OBJECT_NAME":"STARLINK-3748","INCLINATION":"53.2147","DECAY_DATE":null,"REV_AT_EPOCH":"1785","SEMIMAJOR_AXIS":"6917.929","MEAN_MOTION_DOT":"0.00042947","RCS_SIZE":"LARGE","CLASSIFICATION_TYPE":"U","MEAN_MOTION_DDOT":"0.0000000000000","OBJECT_ID":"2022-041G","MEAN_ELEMENT_THEORY":"SGP4","PERIAPSIS":"538.253","GP_ID":"209769308","MEAN_ANOMALY":"227.2559","ECCENTRICITY":"0.00022280","EPOCH":"2022-08-07T22:00:00.999936","TLE_LINE2":"2 52267  53.2147 228.9103 0002228  48.1901 227.2559 15.08824106 17856","REF_FRAME":"TEME","TIME_SYSTEM":"UTC","MEAN_MOTION":"15.08824106","CENTER_NAME":"EARTH","PERIOD":"95.439","LAUNCH_DATE":"2022-04-21","OBJECT_TYPE":"PAYLOAD","NORAD_CAT_ID":"52267","APOAPSIS":"541.335","SITE":"AFETR","BSTAR":"0.00270130000000","RA_OF_ASC_NODE":"228.9103","EPHEMERIS_TYPE":"0","ELEMENT_SET_NO":"999"},{"PERIAPSIS":"538.422","MEAN_ELEMENT_THEORY":"SGP4","MEAN_ANOMALY":"286.7307","GP_ID":"209769306","ECCENTRICITY":"0.00019530","EPOCH":"2022-08-07T22:00:00.999936","MEAN_MOTION_DOT":"0.00021645","SEMIMAJOR_AXIS":"6917.908","RCS_SIZE":"LARGE","CLASSIFICATION_TYPE":"U","OBJECT_ID":"2022-041H","MEAN_MOTION_DDOT":"0.0000000000000","COUNTRY_CODE":"US","INCLINATION":"53.2149","OBJECT_NAME":"STARLINK-3746","ARG_OF_PERICENTER":"48.7297","REV_AT_EPOCH":"1785","DECAY_DATE":null,"TLE_LINE1":"1 52268U 22041H   22219.91667824  .00021645  00000-0  13742-2 0  9998","FILE":"3531444","SITE":"AFETR","BSTAR":"0.00137420000000","EPHEMERIS_TYPE":"0","RA_OF_ASC_NODE":"228.9095","ELEMENT_SET_NO":"999","PERIOD":"95.438","CENTER_NAME":"EARTH","LAUNCH_DATE":"2022-04-21","OBJECT_TYPE":"PAYLOAD","APOAPSIS":"541.124","NORAD_CAT_ID":"52268","MEAN_MOTION":"15.08831099","TIME_SYSTEM":"UTC","TLE_LINE2":"2 52268  53.2149 228.9095 0001953  48.7297 286.7307 15.08831099 17857","REF_FRAME":"TEME"},{"FILE":"3531444","TLE_LINE1":"1 52269U 22041J   22219.91667824  .00034912  00000-0  22014-2 0  9992","DECAY_DATE":null,"REV_AT_EPOCH":"1785","ARG_OF_PERICENTER":"56.7455","COUNTRY_CODE":"US","OBJECT_NAME":"STARLINK-3791","INCLINATION":"53.2145","MEAN_MOTION_DDOT":"0.0000000000000","OBJECT_ID":"2022-041J","CLASSIFICATION_TYPE":"U","RCS_SIZE":"LARGE","MEAN_MOTION_DOT":"0.00034912","SEMIMAJOR_AXIS":"6917.911","EPOCH":"2022-08-07T22:00:00.999936","ECCENTRICITY":"0.00018120","GP_ID":"209769676","MEAN_ANOMALY":"238.6944","MEAN_ELEMENT_THEORY":"SGP4","PERIAPSIS":"538.522","REF_FRAME":"TEME","TLE_LINE2":"2 52269  53.2145 228.9095 0001812  56.7455 238.6944 15.08830081 17856","TIME_SYSTEM":"UTC","MEAN_MOTION":"15.08830081","APOAPSIS":"541.029","NORAD_CAT_ID":"52269","OBJECT_TYPE":"PAYLOAD","LAUNCH_DATE":"2022-04-21","CENTER_NAME":"EARTH","PERIOD":"95.438","ELEMENT_SET_NO":"999","EPHEMERIS_TYPE":"0","RA_OF_ASC_NODE":"228.9095","SITE":"AFETR","BSTAR":"0.00220140000000"},{"INCLINATION":"53.2159","COUNTRY_CODE":"US","OBJECT_NAME":"STARLINK-3804","ARG_OF_PERICENTER":"47.7032","REV_AT_EPOCH":"1784","DECAY_DATE":null,"TLE_LINE1":"1 52270U 22041K   22219.91667824  .00018749  00000-0  11930-2 0  9999","FILE":"3531444","PERIAPSIS":"538.124","MEAN_ELEMENT_THEORY":"SGP4","GP_ID":"209769301","ECCENTRICITY":"0.00023500","MEAN_ANOMALY":"302.5465","EPOCH":"2022-08-07T22:00:00.999936","MEAN_MOTION_DOT":"0.00018749","SEMIMAJOR_AXIS":"6917.885","RCS_SIZE":"LARGE","CLASSIFICATION_TYPE":"U","OBJECT_ID":"2022-041K","MEAN_MOTION_DDOT":"0.0000000000000","MEAN_MOTION":"15.08838588","TIME_SYSTEM":"UTC","TLE_LINE2":"2 52270  53.2159 228.9040 0002350  47.7032 302.5465 15.08838588 17840","REF_FRAME":"TEME","SITE":"AFETR","BSTAR":"0.00119300000000","EPHEMERIS_TYPE":"0","RA_OF_ASC_NODE":"228.9040","ELEMENT_SET_NO":"999","CENTER_NAME":"EARTH","PERIOD":"95.438","LAUNCH_DATE":"2022-04-21","OBJECT_TYPE":"PAYLOAD","NORAD_CAT_ID":"52270","APOAPSIS":"541.375"},{"ELEMENT_SET_NO":"999","EPHEMERIS_TYPE":"0","RA_OF_ASC_NODE":"228.9097","BSTAR":"0.00293210000000","SITE":"AFETR","APOAPSIS":"541.119","NORAD_CAT_ID":"52271","OBJECT_TYPE":"PAYLOAD","LAUNCH_DATE":"2022-04-21","CENTER_NAME":"EARTH","PERIOD":"95.439","MEAN_MOTION":"15.08817424","TIME_SYSTEM":"UTC","REF_FRAME":"TEME","TLE_LINE2":"2 52271  53.2143 228.9097 0001886  51.3030 264.1264 15.08817424 17855","EPOCH":"2022-08-07T22:00:00.999936","MEAN_ANOMALY":"264.1264","GP_ID":"209769344","ECCENTRICITY":"0.00018860","PERIAPSIS":"538.510","MEAN_ELEMENT_THEORY":"SGP4","OBJECT_ID":"2022-041L","MEAN_MOTION_DDOT":"0.0000000000000","CLASSIFICATION_TYPE":"U","RCS_SIZE":"LARGE","MEAN_MOTION_DOT":"0.00046657","SEMIMAJOR_AXIS":"6917.949","REV_AT_EPOCH":"1785","DECAY_DATE":null,"INCLINATION":"53.2143","COUNTRY_CODE":"US","OBJECT_NAME":"STARLINK-3788","ARG_OF_PERICENTER":"51.3030","TLE_LINE1":"1 52271U 22041L   22219.91667824  .00046657  00000-0  29321-2 0  9992","FILE":"3531446"},{"TLE_LINE1":"1 52272U 22041M   22219.91667824  .00048284  00000-0  30332-2 0  9995","FILE":"3531552","REV_AT_EPOCH":"130","DECAY_DATE":null,"COUNTRY_CODE":"US","OBJECT_NAME":"STARLINK-3781","INCLINATION":"53.2168","ARG_OF_PERICENTER":"50.8826","OBJECT_ID":"2022-041M","MEAN_MOTION_DDOT":"0.0000000000000","CLASSIFICATION_TYPE":"U","RCS_SIZE":"LARGE","MEAN_MOTION_DOT":"0.00048284","SEMIMAJOR_AXIS":"6917.956","EPOCH":"2022-08-07T22:00:00.999936","ECCENTRICITY":"0.00019380","GP_ID":"209796066","MEAN_ANOMALY":"319.3353","PERIAPSIS":"538.481","MEAN_ELEMENT_THEORY":"SGP4","REF_FRAME":"TEME","TLE_LINE2":"2 52272  53.2168 228.9047 0001938  50.8826 319.3353 15.08815168  1301","MEAN_MOTION":"15.08815168","TIME_SYSTEM":"UTC","NORAD_CAT_ID":"52272","APOAPSIS":"541.162","OBJECT_TYPE":"PAYLOAD","LAUNCH_DATE":"2022-04-21","PERIOD":"95.439","CENTER_NAME":"EARTH","ELEMENT_SET_NO":"999","EPHEMERIS_TYPE":"0","RA_OF_ASC_NODE":"228.9047","BSTAR":"0.00303320000000","SITE":"AFETR"},{"FILE":"3531552","TLE_LINE1":"1 52273U 22041N   22219.91667824  .00044017  00000-0  27686-2 0  9994","DECAY_DATE":null,"REV_AT_EPOCH":"130","ARG_OF_PERICENTER":"70.4866","COUNTRY_CODE":"US","INCLINATION":"53.2143","OBJECT_NAME":"STARLINK-3782","MEAN_MOTION_DDOT":"0.0000000000000","OBJECT_ID":"2022-041N","CLASSIFICATION_TYPE":"U","RCS_SIZE":"LARGE","SEMIMAJOR_AXIS":"6917.964","MEAN_MOTION_DOT":"0.00044017","EPOCH":"2022-08-07T22:00:00.999936","GP_ID":"209796478","MEAN_ANOMALY":"274.7210","ECCENTRICITY":"0.00015960","MEAN_ELEMENT_THEORY":"SGP4","PERIAPSIS":"538.725","REF_FRAME":"TEME","TLE_LINE2":"2 52273  53.2143 218.9095 0001596  70.4866 274.7210 15.08812590  1301","TIME_SYSTEM":"UTC","MEAN_MOTION":"15.08812590","APOAPSIS":"540.933","NORAD_CAT_ID":"52273","OBJECT_TYPE":"PAYLOAD","LAUNCH_DATE":"2022-04-21","CENTER_NAME":"EARTH","PERIOD":"95.439","ELEMENT_SET_NO":"999","EPHEMERIS_TYPE":"0","RA_OF_ASC_NODE":"218.9095","SITE":"AFETR","BSTAR":"0.00276860000000"}];
